CCSDS_OMM_VERS = 2.0
CREATION_DATE  = 
ORIGINATOR     = 

OBJECT_NAME    = STARLINK-36194
OBJECT_ID      = 2025-299AE
CENTER_NAME    = EARTH
REF_FRAME      = TEME
TIME_SYSTEM    = UTC
MEAN_ELEMENT_THEORY = SGP/SGP4

EPOCH          = 2025-12-31T06:00:02.000160
MEAN_MOTION    = 15.59281000
ECCENTRICITY   = .00018493
INCLINATION    = 42.9991
RA_OF_ASC_NODE = 203.6558
ARG_OF_PERICENTER = 269.7967
MEAN_ANOMALY   = 146.1031

EPHEMERIS_TYPE = 0
CLASSIFICATION_TYPE = U
NORAD_CAT_ID   = 67130
ELEMENT_SET_NO = 999
REV_AT_EPOCH   = 378
BSTAR          = -.27096194E-1
MEAN_MOTION_DOT = -.1931376E-1
MEAN_MOTION_DDOT = 0

CCSDS_OMM_VERS = 2.0
CREATION_DATE  = 
ORIGINATOR     = 

OBJECT_NAME    = ZIYUAN 3-04 (ZY 3-04)
OBJECT_ID      = 2025-300A
CENTER_NAME    = EARTH
REF_FRAME      = TEME
TIME_SYSTEM    = UTC
MEAN_ELEMENT_THEORY = SGP/SGP4

EPOCH          = 2025-12-27T02:15:00.635904
MEAN_MOTION    = 15.21251311
ECCENTRICITY   = .00031253
INCLINATION    = 97.4921
RA_OF_ASC_NODE = 75.1314
ARG_OF_PERICENTER = 152.4137
MEAN_ANOMALY   = 207.7265

EPHEMERIS_TYPE = 0
CLASSIFICATION_TYPE = U
NORAD_CAT_ID   = 67131
ELEMENT_SET_NO = 999
REV_AT_EPOCH   = 167
BSTAR          = .94249032E-4
MEAN_MOTION_DOT = .2035E-4
MEAN_MOTION_DDOT = 0

CCSDS_OMM_VERS = 2.0
CREATION_DATE  = 
ORIGINATOR     = 

OBJECT_NAME    = CZ-4B R/B
OBJECT_ID      = 2025-300B
CENTER_NAME    = EARTH
REF_FRAME      = TEME
TIME_SYSTEM    = UTC
MEAN_ELEMENT_THEORY = SGP/SGP4

EPOCH          = 2025-12-28T04:50:01.164768
MEAN_MOTION    = 15.66474008
ECCENTRICITY   = .01658831
INCLINATION    = 97.5543
RA_OF_ASC_NODE = 77.1821
ARG_OF_PERICENTER = 333.4129
MEAN_ANOMALY   = 25.8691

EPHEMERIS_TYPE = 0
CLASSIFICATION_TYPE = U
NORAD_CAT_ID   = 67132
ELEMENT_SET_NO = 999
REV_AT_EPOCH   = 189
BSTAR          = .23618416E-3
MEAN_MOTION_DOT = .5235E-3
MEAN_MOTION_DDOT = .3049283E-5

CCSDS_OMM_VERS = 2.0
CREATION_DATE  = 
ORIGINATOR     = 

OBJECT_NAME    = KUIPER-00144
OBJECT_ID      = 2025-301A
CENTER_NAME    = EARTH
REF_FRAME      = TEME
TIME_SYSTEM    = UTC
MEAN_ELEMENT_THEORY = SGP/SGP4

EPOCH          = 2025-12-31T06:07:20.546688
MEAN_MOTION    = 15.35658856
ECCENTRICITY   = .00064173
INCLINATION    = 51.8702
RA_OF_ASC_NODE = 35.8471
ARG_OF_PERICENTER = 132.8317
MEAN_ANOMALY   = 227.3210

EPHEMERIS_TYPE = 0
CLASSIFICATION_TYPE = U
NORAD_CAT_ID   = 67133
ELEMENT_SET_NO = 999
REV_AT_EPOCH   = 321
BSTAR          = .1472129E-2
MEAN_MOTION_DOT = .51829E-3
MEAN_MOTION_DDOT = 0

CCSDS_OMM_VERS = 2.0
CREATION_DATE  = 
ORIGINATOR     = 

OBJECT_NAME    = KUIPER-00164
OBJECT_ID      = 2025-301B
CENTER_NAME    = EARTH
REF_FRAME      = TEME
TIME_SYSTEM    = UTC
MEAN_ELEMENT_THEORY = SGP/SGP4

EPOCH          = 2025-12-31T07:31:05.939616
MEAN_MOTION    = 15.36308650
ECCENTRICITY   = .00032253
INCLINATION    = 51.8725
RA_OF_ASC_NODE = 35.4876
ARG_OF_PERICENTER = 120.9989
MEAN_ANOMALY   = 239.1315

EPHEMERIS_TYPE = 0
CLASSIFICATION_TYPE = U
NORAD_CAT_ID   = 67134
ELEMENT_SET_NO = 999
REV_AT_EPOCH   = 340
BSTAR          = .58046814E-3
MEAN_MOTION_DOT = .20539E-3
MEAN_MOTION_DDOT = 0

CCSDS_OMM_VERS = 2.0
CREATION_DATE  = 
ORIGINATOR     = 

OBJECT_NAME    = KUIPER-00175
OBJECT_ID      = 2025-301C
CENTER_NAME    = EARTH
REF_FRAME      = TEME
TIME_SYSTEM    = UTC
MEAN_ELEMENT_THEORY = SGP/SGP4

EPOCH          = 2025-12-31T07:24:20.916288
MEAN_MOTION    = 15.36823688
ECCENTRICITY   = .00025724
INCLINATION    = 51.8743
RA_OF_ASC_NODE = 35.4525
ARG_OF_PERICENTER = 72.6318
MEAN_ANOMALY   = 287.4950

EPHEMERIS_TYPE = 0
CLASSIFICATION_TYPE = U
NORAD_CAT_ID   = 67135
ELEMENT_SET_NO = 999
REV_AT_EPOCH   = 329
BSTAR          = .13738357E-2
MEAN_MOTION_DOT = .50162E-3
MEAN_MOTION_DDOT = 0

CCSDS_OMM_VERS = 2.0
CREATION_DATE  = 
ORIGINATOR     = 

OBJECT_NAME    = KUIPER-00179
OBJECT_ID      = 2025-301D
CENTER_NAME    = EARTH
REF_FRAME      = TEME
TIME_SYSTEM    = UTC
MEAN_ELEMENT_THEORY = SGP/SGP4

EPOCH          = 2025-12-31T07:28:52.551840
MEAN_MOTION    = 15.36396214
ECCENTRICITY   = .00033038
INCLINATION    = 51.8739
RA_OF_ASC_NODE = 35.4752
ARG_OF_PERICENTER = 100.1347
MEAN_ANOMALY   = 260.0013

EPHEMERIS_TYPE = 0
CLASSIFICATION_TYPE = U
NORAD_CAT_ID   = 67136
ELEMENT_SET_NO = 999
REV_AT_EPOCH   = 340
BSTAR          = .11647435E-2
MEAN_MOTION_DOT = .41839E-3
MEAN_MOTION_DDOT = 0

CCSDS_OMM_VERS = 2.0
CREATION_DATE  = 
ORIGINATOR     = 

OBJECT_NAME    = KUIPER-00181
OBJECT_ID      = 2025-301E
CENTER_NAME    = EARTH
REF_FRAME      = TEME
TIME_SYSTEM    = UTC
MEAN_ELEMENT_THEORY = SGP/SGP4

EPOCH          = 2025-12-31T06:22:00.949728
MEAN_MOTION    = 15.34582882
ECCENTRICITY   = .00104513
INCLINATION    = 51.8649
RA_OF_ASC_NODE = 35.9094
ARG_OF_PERICENTER = 159.3901
MEAN_ANOMALY   = 200.7508

EPHEMERIS_TYPE = 0
CLASSIFICATION_TYPE = U
NORAD_CAT_ID   = 67137
ELEMENT_SET_NO = 999
REV_AT_EPOCH   = 337
BSTAR          = .7354505E-3
MEAN_MOTION_DOT = .24758E-3
MEAN_MOTION_DDOT = 0

CCSDS_OMM_VERS = 2.0
CREATION_DATE  = 
ORIGINATOR     = 

OBJECT_NAME    = KUIPER-00183
OBJECT_ID      = 2025-301F
CENTER_NAME    = EARTH
REF_FRAME      = TEME
TIME_SYSTEM    = UTC
MEAN_ELEMENT_THEORY = SGP/SGP4

EPOCH          = 2025-12-31T06:26:32.800416
MEAN_MOTION    = 15.34328197
ECCENTRICITY   = .00110035
INCLINATION    = 51.8626
RA_OF_ASC_NODE = 35.9276
ARG_OF_PERICENTER = 162.2196
MEAN_ANOMALY   = 197.9176

EPHEMERIS_TYPE = 0
CLASSIFICATION_TYPE = U
NORAD_CAT_ID   = 67138
ELEMENT_SET_NO = 999
REV_AT_EPOCH   = 338
BSTAR          = .11406621E-2
MEAN_MOTION_DOT = .38373E-3
MEAN_MOTION_DDOT = 0

CCSDS_OMM_VERS = 2.0
CREATION_DATE  = 
ORIGINATOR     = 

OBJECT_NAME    = KUIPER-00184
OBJECT_ID      = 2025-301G
CENTER_NAME    = EARTH
REF_FRAME      = TEME
TIME_SYSTEM    = UTC
MEAN_ELEMENT_THEORY = SGP/SGP4

EPOCH          = 2025-12-31T06:20:54.991968
MEAN_MOTION    = 15.34625847
ECCENTRICITY   = .00090533
INCLINATION    = 51.8636
RA_OF_ASC_NODE = 35.9040
ARG_OF_PERICENTER = 157.7487
MEAN_ANOMALY   = 202.3893

EPHEMERIS_TYPE = 0
CLASSIFICATION_TYPE = U
NORAD_CAT_ID   = 67139
ELEMENT_SET_NO = 999
REV_AT_EPOCH   = 349
BSTAR          = .88490228E-3
MEAN_MOTION_DOT = .29917E-3
MEAN_MOTION_DDOT = 0

CCSDS_OMM_VERS = 2.0
CREATION_DATE  = 
ORIGINATOR     = 

OBJECT_NAME    = KUIPER-00186
OBJECT_ID      = 2025-301H
CENTER_NAME    = EARTH
REF_FRAME      = TEME
TIME_SYSTEM    = UTC
MEAN_ELEMENT_THEORY = SGP/SGP4

EPOCH          = 2025-12-31T06:13:01.915680
MEAN_MOTION    = 15.35311863
ECCENTRICITY   = .00077531
INCLINATION    = 51.8687
RA_OF_ASC_NODE = 35.8717
ARG_OF_PERICENTER = 144.6980
MEAN_ANOMALY   = 215.4521

EPHEMERIS_TYPE = 0
CLASSIFICATION_TYPE = U
NORAD_CAT_ID   = 67140
ELEMENT_SET_NO = 999
REV_AT_EPOCH   = 321
BSTAR          = .83042965E-3
MEAN_MOTION_DOT = .28664E-3
MEAN_MOTION_DDOT = 0

CCSDS_OMM_VERS = 2.0
CREATION_DATE  = 
ORIGINATOR     = 

OBJECT_NAME    = KUIPER-00187
OBJECT_ID      = 2025-301J
CENTER_NAME    = EARTH
REF_FRAME      = TEME
TIME_SYSTEM    = UTC
MEAN_ELEMENT_THEORY = SGP/SGP4

EPOCH          = 2025-12-31T06:01:49.571616
MEAN_MOTION    = 15.36096356
ECCENTRICITY   = .00045597
INCLINATION    = 51.8710
RA_OF_ASC_NODE = 35.8226
ARG_OF_PERICENTER = 128.8866
MEAN_ANOMALY   = 231.2527

EPHEMERIS_TYPE = 0
CLASSIFICATION_TYPE = U
NORAD_CAT_ID   = 67141
ELEMENT_SET_NO = 999
REV_AT_EPOCH   = 321
BSTAR          = .83074223E-3
MEAN_MOTION_DOT = .29397E-3
MEAN_MOTION_DDOT = 0

