STARLINK-36194          
1 67130U 25299AE  25365.25002315 -.01931376  00000+0 -27096-1 0  9999
2 67130  42.9991 203.6558 0001849 269.7967 146.1031 15.59281000  3785
ZIYUAN 3-04 (ZY 3-04)   
1 67131U 25300A   25361.09375736  .00002035  00000+0  94249-4 0  9996
2 67131  97.4921  75.1314 0003125 152.4137 207.7265 15.21251311  1672
CZ-4B R/B               
1 67132U 25300B   25362.20140237  .00052350  30493-5  23618-3 0  9998
2 67132  97.5543  77.1821 0165883 333.4129  25.8691 15.66474008  1896
KUIPER-00144            
1 67133U 25301A   25365.25509892  .00051829  00000+0  14721-2 0  9993
2 67133  51.8702  35.8471 0006417 132.8317 227.3210 15.35658856  3211
KUIPER-00164            
1 67134U 25301B   25365.31326319  .00020539  00000+0  58047-3 0  9996
2 67134  51.8725  35.4876 0003225 120.9989 239.1315 15.36308650  3402
KUIPER-00175            
1 67135U 25301C   25365.30857542  .00050162  00000+0  13738-2 0  9995
2 67135  51.8743  35.4525 0002572  72.6318 287.4950 15.36823688  3298
KUIPER-00179            
1 67136U 25301D   25365.31171935  .00041839  00000+0  11647-2 0  9990
2 67136  51.8739  35.4752 0003303 100.1347 260.0013 15.36396214  3408
KUIPER-00181            
1 67137U 25301E   25365.26528877  .00024758  00000+0  73545-3 0  9993
2 67137  51.8649  35.9094 0010451 159.3901 200.7508 15.34582882  3379
KUIPER-00183            
1 67138U 25301F   25365.26843519  .00038373  00000+0  11407-2 0  9993
2 67138  51.8626  35.9276 0011003 162.2196 197.9176 15.34328197  3386
KUIPER-00184            
1 67139U 25301G   25365.26452537  .00029917  00000+0  88490-3 0  9991
2 67139  51.8636  35.9040 0009053 157.7487 202.3893 15.34625847  3492
KUIPER-00186            
1 67140U 25301H   25365.25904995  .00028664  00000+0  83043-3 0  9999
2 67140  51.8687  35.8717 0007753 144.6980 215.4521 15.35311863  3212
KUIPER-00187            
1 67141U 25301J   25365.25126819  .00029397  00000+0  83074-3 0  9999
2 67141  51.8710  35.8226 0004559 128.8866 231.2527 15.36096356  3213
